{"type":"FeatureCollection","features":[{"type":"Feature","geometry":{"type":"Polygon","coordinates":[[[-71.19491,42.36699],[-71.19476,42.36687],[-71.1945,42.36672],[-71.19414,42.36656],[-71.19385,42.3664],[-71.19357,42.36619],[-71.1933,42.36604],[-71.19267,42.36573],[-71.19222,42.36542],[-71.19244,42.3652],[-71.19251,42.36517],[-71.1963,42.3618],[-71.18368,42.35883],[-71.18234,42.36045],[-71.18228,42.36049],[-71.18213,42.36068],[-71.18113,42.36038],[-71.18024,42.36006],[-71.17939,42.35982],[-71.17886,42.3597],[-71.17824,42.35957],[-71.17772,42.35949],[-71.17725,42.35944],[-71.17675,42.35937],[-71.17636,42.35934],[-71.17579,42.3593],[-71.17527,42.35927],[-71.17472,42.35926],[-71.17397,42.35926],[-71.17348,42.35928],[-71.17275,42.35933],[-71.17202,42.35945],[-71.17127,42.35963],[-71.17005,42.36],[-71.16938,42.36014],[-71.16892,42.36018],[-71.16865,42.36021],[-71.16826,42.36018],[-71.16794,42.36013],[-71.16751,42.36008],[-71.16843,42.35915],[-71.16862,42.35896],[-71.17392,42.35347],[-71.17485,42.35034],[-71.16668,42.3401],[-71.16681,42.33929],[-71.16841,42.33871],[-71.16863,42.33863],[-71.16894,42.33845],[-71.16922,42.33807],[-71.16912,42.33738],[-71.16886,42.3363],[-71.16889,42.33583],[-71.16857,42.33514],[-71.16847,42.33509],[-71.16819,42.33479],[-71.16753,42.33336],[-71.1653,42.33363],[-71.16306,42.33385],[-71.16271,42.33388],[-71.16244,42.33389],[-71.16199,42.33385],[-71.16141,42.33372],[-71.16083,42.33349],[-71.16008,42.33312],[-71.15963,42.33288],[-71.15918,42.3325],[-71.15866,42.33199],[-71.15722,42.33057],[-71.15704,42.33039],[-71.15689,42.33024],[-71.15861,42.32909],[-71.16042,42.32771],[-71.16136,42.32702],[-71.16249,42.32619],[-71.1633,42.32559],[-71.16466,42.32458],[-71.16735,42.32264],[-71.16928,42.32212],[-71.16917,42.32189],[-71.17048,42.32154],[-71.17007,42.32068],[-71.17367,42.31809],[-71.1763,42.31619],[-71.17856,42.31458],[-71.17894,42.31432],[-71.16984,42.30764],[-71.16609,42.30447],[-71.1647,42.30383],[-71.17861,42.29461],[-71.1909,42.28325],[-71.19125,42.28299],[-71.19124,42.28346],[-71.19113,42.28412],[-71.191,42.28469],[-71.19089,42.28513],[-71.19084,42.28549],[-71.19089,42.28582],[-71.19114,42.2862],[-71.19162,42.28673],[-71.19212,42.28728],[-71.19262,42.28768],[-71.19316,42.28799],[-71.19381,42.28821],[-71.19429,42.28828],[-71.19466,42.28828],[-71.19501,42.28816],[-71.19527,42.28797],[-71.19552,42.28757],[-71.19563,42.28726],[-71.19567,42.28683],[-71.19569,42.28648],[-71.19579,42.2862],[-71.19609,42.28597],[-71.19636,42.28596],[-71.19673,42.28608],[-71.19693,42.28621],[-71.19738,42.28649],[-71.198,42.28677],[-71.19838,42.28695],[-71.19872,42.28708],[-71.199,42.28718],[-71.1993,42.28727],[-71.19962,42.28741],[-71.20002,42.28759],[-71.20034,42.28779],[-71.20108,42.2884],[-71.20134,42.28856],[-71.20159,42.28863],[-71.20199,42.28863],[-71.20251,42.2886],[-71.20298,42.28857],[-71.20338,42.28862],[-71.20377,42.28873],[-71.20419,42.28889],[-71.20457,42.28905],[-71.20496,42.2893],[-71.20524,42.28957],[-71.20542,42.28986],[-71.20551,42.29019],[-71.20557,42.29044],[-71.20559,42.29099],[-71.20558,42.29171],[-71.20567,42.29216],[-71.2058,42.29251],[-71.20605,42.2934],[-71.20635,42.29427],[-71.20678,42.29507],[-71.20699,42.29545],[-71.2071,42.29572],[-71.20722,42.29611],[-71.20737,42.29653],[-71.20754,42.29686],[-71.20785,42.29714],[-71.2083,42.29744],[-71.20966,42.2983],[-71.21048,42.29883],[-71.21096,42.29921],[-71.21134,42.2995],[-71.21157,42.29973],[-71.21169,42.29991],[-71.21178,42.30006],[-71.21182,42.30019],[-71.21185,42.30037],[-71.21182,42.30064],[-71.21177,42.30094],[-71.21163,42.30132],[-71.21146,42.30167],[-71.21133,42.30201],[-71.21125,42.30227],[-71.21121,42.30261],[-71.21124,42.30288],[-71.21134,42.30332],[-71.21148,42.30365],[-71.2118,42.30417],[-71.21207,42.30468],[-71.21239,42.30522],[-71.21273,42.30571],[-71.21295,42.30595],[-71.21328,42.30616],[-71.21369,42.30629],[-71.21417,42.30636],[-71.21497,42.30637],[-71.21596,42.3064],[-71.21636,42.30641],[-71.21666,42.30648],[-71.21692,42.30654],[-71.21731,42.30663],[-71.21772,42.30671],[-71.21819,42.3068],[-71.21848,42.30681],[-71.21896,42.30674],[-71.21975,42.30658],[-71.22025,42.30645],[-71.22051,42.30641],[-71.22086,42.30641],[-71.22115,42.30649],[-71.22151,42.30663],[-71.22208,42.30688],[-71.22248,42.30705],[-71.22278,42.30715],[-71.2232,42.30717],[-71.22372,42.30721],[-71.22411,42.30731],[-71.22451,42.30746],[-71.22484,42.30758],[-71.22511,42.30774],[-71.22545,42.30795],[-71.22574,42.30803],[-71.22609,42.30808],[-71.22642,42.30814],[-71.22669,42.30825],[-71.227,42.30849],[-71.22714,42.30877],[-71.22721,42.30901],[-71.22712,42.30928],[-71.22691,42.30951],[-71.22668,42.3097],[-71.22651,42.30986],[-71.22635,42.31011],[-71.22631,42.31028],[-71.22638,42.3105],[-71.22678,42.31117],[-71.22694,42.31155],[-71.22707,42.31239],[-71.22698,42.31266],[-71.22678,42.31289],[-71.22654,42.31308],[-71.22643,42.3132],[-71.22634,42.31342],[-71.22633,42.31373],[-71.22631,42.31393],[-71.22629,42.31412],[-71.22639,42.31432],[-71.22661,42.31448],[-71.22701,42.31485],[-71.22742,42.31525],[-71.22754,42.3154],[-71.22753,42.3159],[-71.2276,42.31604],[-71.22772,42.31614],[-71.22787,42.31629],[-71.22794,42.31642],[-71.22797,42.31666],[-71.22815,42.31716],[-71.22815,42.31758],[-71.22811,42.31784],[-71.22815,42.31802],[-71.22814,42.31838],[-71.22821,42.31871],[-71.22826,42.31885],[-71.22836,42.31901],[-71.22849,42.31913],[-71.22873,42.31928],[-71.22899,42.31937],[-71.2292,42.31942],[-71.22933,42.31948],[-71.22948,42.31957],[-71.23023,42.32021],[-71.23063,42.32053],[-71.23091,42.32073],[-71.23113,42.32084],[-71.23146,42.32092],[-71.23188,42.32094],[-71.23269,42.32092],[-71.23351,42.32086],[-71.23397,42.32083],[-71.23438,42.3208],[-71.23476,42.32085],[-71.23549,42.32097],[-71.23654,42.32129],[-71.23754,42.32161],[-71.2381,42.32176],[-71.23842,42.32179],[-71.23879,42.3218],[-71.23922,42.3217],[-71.23963,42.32148],[-71.24,42.32124],[-71.24026,42.32108],[-71.24065,42.32092],[-71.24107,42.32087],[-71.24163,42.32086],[-71.24216,42.32084],[-71.24264,42.32087],[-71.24298,42.32091],[-71.24339,42.32098],[-71.24375,42.32109],[-71.244,42.32117],[-71.2443,42.32123],[-71.24459,42.32126],[-71.24484,42.32124],[-71.24529,42.32112],[-71.24561,42.32108],[-71.24596,42.32103],[-71.24622,42.32101],[-71.24661,42.32102],[-71.24682,42.32106],[-71.24703,42.32116],[-71.24734,42.32136],[-71.2478,42.32187],[-71.24831,42.32253],[-71.24851,42.323],[-71.24859,42.32324],[-71.24876,42.32345],[-71.24887,42.32355],[-71.24904,42.32362],[-71.24954,42.32368],[-71.24977,42.32373],[-71.24994,42.32386],[-71.25004,42.324],[-71.25008,42.32416],[-71.2501,42.32433],[-71.25023,42.32455],[-71.25044,42.32475],[-71.2508,42.32496],[-71.25105,42.32511],[-71.25124,42.32527],[-71.25137,42.32546],[-71.25146,42.32569],[-71.25159,42.32593],[-71.25175,42.32612],[-71.25203,42.32628],[-71.25238,42.32648],[-71.25264,42.32662],[-71.25281,42.32671],[-71.25294,42.32676],[-71.25321,42.32678],[-71.25347,42.32676],[-71.25377,42.32665],[-71.25384,42.32662],[-71.25387,42.32658],[-71.25411,42.32629],[-71.25431,42.32605],[-71.25439,42.32583],[-71.25442,42.32558],[-71.25447,42.32539],[-71.25459,42.32529],[-71.25489,42.32513],[-71.25522,42.32502],[-71.25554,42.32489],[-71.25596,42.32477],[-71.25629,42.32466],[-71.25674,42.32458],[-71.25708,42.32451],[-71.2574,42.32448],[-71.25782,42.32451],[-71.25811,42.32461],[-71.25828,42.32477],[-71.2584,42.32494],[-71.25845,42.32518],[-71.2585,42.32542],[-71.25858,42.3256],[-71.25868,42.32582],[-71.25882,42.32607],[-71.259,42.32634],[-71.2592,42.32651],[-71.25936,42.32661],[-71.25956,42.32667],[-71.25989,42.32676],[-71.26025,42.32679],[-71.26092,42.32677],[-71.2615,42.32671],[-71.26195,42.32665],[-71.26226,42.32658],[-71.26249,42.32651],[-71.26282,42.32631],[-71.26309,42.32605],[-71.26327,42.326],[-71.26353,42.32601],[-71.2637,42.32608],[-71.26383,42.32616],[-71.26401,42.32624],[-71.26418,42.32631],[-71.26447,42.3265],[-71.26502,42.32687],[-71.26534,42.32706],[-71.26569,42.32724],[-71.2661,42.32739],[-71.26675,42.32753],[-71.26753,42.32752],[-71.26791,42.32753],[-71.2683,42.32758],[-71.26887,42.32764],[-71.26936,42.32772],[-71.26956,42.32778],[-71.2697,42.32786],[-71.26995,42.32808],[-71.27017,42.3284],[-71.27026,42.32856],[-71.27028,42.32873],[-71.27025,42.32893],[-71.27016,42.32913],[-71.27003,42.32927],[-71.26986,42.32941],[-71.26977,42.32956],[-71.26976,42.32976],[-71.26981,42.32998],[-71.26997,42.33019],[-71.2702,42.33036],[-71.27028,42.33052],[-71.27029,42.33069],[-71.27029,42.33086],[-71.27025,42.33098],[-71.27,42.33115],[-71.26977,42.33118],[-71.26961,42.33115],[-71.26941,42.33107],[-71.26919,42.33098],[-71.26897,42.33089],[-71.2688,42.3308],[-71.26848,42.33067],[-71.26818,42.33058],[-71.26801,42.33056],[-71.26782,42.33057],[-71.26748,42.33068],[-71.26718,42.33078],[-71.26665,42.33092],[-71.266,42.33111],[-71.26567,42.33127],[-71.26548,42.33141],[-71.26528,42.33161],[-71.26513,42.33183],[-71.26503,42.33218],[-71.26495,42.33255],[-71.26487,42.33311],[-71.26481,42.33337],[-71.26473,42.33394],[-71.26456,42.33425],[-71.26442,42.33447],[-71.26416,42.33466],[-71.26385,42.33472],[-71.26352,42.33483],[-71.26314,42.3349],[-71.26266,42.3349],[-71.26209,42.33481],[-71.26148,42.33466],[-71.261,42.3346],[-71.26077,42.33463],[-71.26048,42.33465],[-71.26014,42.33475],[-71.25993,42.33482],[-71.25969,42.33497],[-71.25942,42.33517],[-71.2592,42.33542],[-71.25904,42.33579],[-71.25893,42.33602],[-71.25896,42.33624],[-71.259,42.33643],[-71.259,42.33653],[-71.25895,42.33659],[-71.25868,42.33678],[-71.25826,42.33701],[-71.25778,42.3373],[-71.25675,42.33804],[-71.25646,42.3383],[-71.25616,42.33861],[-71.25583,42.33899],[-71.25569,42.33929],[-71.25566,42.33956],[-71.2557,42.33975],[-71.25577,42.33996],[-71.25589,42.34011],[-71.25616,42.34028],[-71.25638,42.34044],[-71.25686,42.34065],[-71.25722,42.34079],[-71.25755,42.34091],[-71.2579,42.34105],[-71.25825,42.34119],[-71.25844,42.3412],[-71.25871,42.3412],[-71.25908,42.34114],[-71.25939,42.34108],[-71.25971,42.34103],[-71.26004,42.34094],[-71.26037,42.3409],[-71.26067,42.34094],[-71.26104,42.341],[-71.26132,42.34112],[-71.2616,42.34135],[-71.26171,42.34153],[-71.26181,42.34175],[-71.26188,42.34192],[-71.26187,42.34219],[-71.26179,42.34247],[-71.26167,42.34293],[-71.26153,42.34334],[-71.26141,42.34364],[-71.26133,42.34398],[-71.26124,42.34428],[-71.26109,42.34448],[-71.2606,42.34495],[-71.26017,42.34545],[-71.25995,42.34579],[-71.25976,42.34611],[-71.25972,42.34628],[-71.25972,42.34642],[-71.25979,42.34661],[-71.25988,42.3468],[-71.26016,42.3471],[-71.26037,42.34741],[-71.26043,42.34761],[-71.26043,42.34781],[-71.26037,42.348],[-71.26031,42.34819],[-71.26018,42.34838],[-71.25996,42.34856],[-71.25967,42.34871],[-71.25939,42.34878],[-71.25902,42.34892],[-71.25875,42.34911],[-71.25862,42.34936],[-71.2586,42.34961],[-71.25863,42.35005],[-71.25876,42.35058],[-71.259,42.35134],[-71.25914,42.35172],[-71.25927,42.35197],[-71.25939,42.35218],[-71.25952,42.35234],[-71.25961,42.35247],[-71.25978,42.35263],[-71.25993,42.35282],[-71.2601,42.35301],[-71.26028,42.35331],[-71.26038,42.35355],[-71.26036,42.35366],[-71.25915,42.35407],[-71.25646,42.35491],[-71.25647,42.35453],[-71.25644,42.35422],[-71.25636,42.35401],[-71.25611,42.35382],[-71.25573,42.35375],[-71.25522,42.35393],[-71.25481,42.3542],[-71.25447,42.35443],[-71.25403,42.35477],[-71.25374,42.35504],[-71.25356,42.35524],[-71.25341,42.35544],[-71.25326,42.35565],[-71.25315,42.3559],[-71.21734,42.3665],[-71.21706,42.36657],[-71.21686,42.36627],[-71.21667,42.36606],[-71.21634,42.36585],[-71.21587,42.3657],[-71.21555,42.36562],[-71.21516,42.36562],[-71.21488,42.36568],[-71.21466,42.36569],[-71.21451,42.36568],[-71.2144,42.36562],[-71.21402,42.36533],[-71.21373,42.36512],[-71.21302,42.36486],[-71.21258,42.36478],[-71.212,42.3646],[-71.21164,42.36443],[-71.21126,42.36428],[-71.21097,42.36422],[-71.21057,42.36413],[-71.21018,42.36411],[-71.20994,42.36413],[-71.20956,42.36426],[-71.20921,42.36447],[-71.209,42.36456],[-71.20881,42.36458],[-71.20864,42.36455],[-71.20833,42.36442],[-71.20804,42.36426],[-71.20771,42.36413],[-71.20746,42.3641],[-71.20722,42.36414],[-71.20697,42.36422],[-71.20674,42.36437],[-71.20639,42.36459],[-71.20606,42.36483],[-71.20575,42.36511],[-71.20533,42.36551],[-71.20516,42.36569],[-71.2051,42.36575],[-71.20499,42.36578],[-71.20455,42.36579],[-71.20407,42.36577],[-71.20328,42.36569],[-71.20287,42.36569],[-71.20252,42.36572],[-71.20203,42.36582],[-71.20146,42.36598],[-71.20093,42.36612],[-71.20052,42.36627],[-71.20015,42.36645],[-71.19974,42.36669],[-71.19936,42.36693],[-71.19896,42.36716],[-71.1986,42.36732],[-71.19832,42.3674],[-71.19802,42.36742],[-71.19774,42.36734],[-71.19754,42.36723],[-71.19736,42.36706],[-71.19723,42.36698],[-71.19708,42.36694],[-71.19681,42.36694],[-71.19649,42.36702],[-71.19648,42.36702],[-71.19633,42.36718],[-71.1962,42.36734],[-71.19603,42.36753],[-71.19585,42.36769],[-71.19565,42.36779],[-71.19542,42.36783],[-71.19521,42.36773],[-71.19505,42.36748],[-71.19499,42.36715],[-71.19491,42.36699]]]},"properties":{}}]}